[{"OBJECT_NAME":"OBJECT F","OBJECT_ID":"2023-072F","EPOCH":"2026-03-09T23:31:37.259904","MEAN_MOTION":15.29470958,"ECCENTRICITY":0.00062878,"INCLINATION":97.5173,"RA_OF_ASC_NODE":265.798,"ARG_OF_PERICENTER":19.0017,"MEAN_ANOMALY":341.1456,"EPHEMERIS_TYPE":0,"CLASSIFICATION_TYPE":"U","NORAD_CAT_ID":56748,"ELEMENT_SET_NO":999,"REV_AT_EPOCH":15460,"BSTAR":0.00043416252,"MEAN_MOTION_DOT":0.00012341,"MEAN_MOTION_DDOT":0},{"OBJECT_NAME":"STARLINK-35382","OBJECT_ID":"2025-232Q","EPOCH":"2026-03-09T11:51:57.550176","MEAN_MOTION":15.30189182,"ECCENTRICITY":0.00013269,"INCLINATION":53.1592,"RA_OF_ASC_NODE":104.9559,"ARG_OF_PERICENTER":86.2334,"MEAN_ANOMALY":273.8819,"EPHEMERIS_TYPE":0,"CLASSIFICATION_TYPE":"U","NORAD_CAT_ID":66019,"ELEMENT_SET_NO":999,"REV_AT_EPOCH":2340,"BSTAR":0.00093906913,"MEAN_MOTION_DOT":0.00027547,"MEAN_MOTION_DDOT":0}]
